NORAD_CAT_ID,OBJECT_NAME,OBJECT_TYPE,EPOCH,MEAN_MOTION,ECCENTRICITY,INCLINATION,RA_OF_ASC_NODE,ARG_OF_PERICENTER,MEAN_ANOMALY,BSTAR,MEAN_MOTION_DOT,MEAN_MOTION_DDOT,TLE_LINE0,TLE_LINE1,TLE_LINE2,SEMIMAJOR_AXIS,PERIOD,APOGEE,PERIGEE,DECAYED
52294.0,STARLINK-3777,PAYLOAD,2022-12-15 17:53:15,15.08834574,0.0002381,53.2192,356.1054,41.9559,318.1615,9.3233e-05,1.196e-05,0.0,0 STARLINK-3777,1 52294U 22041AK  22349.74532096  .00001196  00000-0  93233-4 0  9998,2 52294  53.2192 356.1054 0002381  41.9559 318.1615 15.08834574 36376,6917.897,95.438,541.409,538.115,0.0
52294.0,STARLINK-3777,PAYLOAD,2022-12-16 09:47:06,15.08845744,0.0002243,53.2191,353.1317,38.7236,321.3917,0.00013112,1.799e-05,0.0,0 STARLINK-3777,1 52294U 22041AK  22350.40771093  .00001799  00000-0  13112-3 0  9991,2 52294  53.2191 353.1317 0002243  38.7236 321.3917 15.08845744 37695,6917.863,95.437,541.28,538.1759999999998,0.0
52294.0,STARLINK-3777,PAYLOAD,2022-12-16 17:44:02,15.08842618,0.0002337,53.219,351.6441,38.8981,321.2179,5.443600000000001e-05,5.78e-06,0.0,0 STARLINK-3777,1 52294U 22041AK  22350.73891429  .00000578  00000-0  54436-4 0  9992,2 52294  53.2190 351.6441 0002337  38.8981 321.2179 15.08842618 36524,6917.871999999999,95.437,541.354,538.121,0.0
52294.0,STARLINK-3777,PAYLOAD,2022-12-17 00:05:34,15.08842046,0.0002406,53.2179,350.456,41.8721,318.2454,1.9054e-06,-2.58e-06,0.0,0 STARLINK-3777,1 52294U 22041AK  22351.00387588 -.00000258  00000-0  19054-5 0  9993,2 52294  53.2179 350.4560 0002406  41.8721 318.2454 15.08842046 37789,6917.874,95.437,541.404,538.075,0.0
52294.0,STARLINK-3777,PAYLOAD,2022-12-17 06:27:07,15.08835106,0.0002284,53.218,349.2644,44.3253,315.7921,-1.2015e-06,-3.07e-06,0.0,0 STARLINK-3777,1 52294U 22041AK  22351.26884050 -.00000307  00000-0 -12015-5 0  9993,2 52294  53.2180 349.2644 0002284  44.3253 315.7921 15.08835106 37827,6917.895,95.438,541.34,538.18,0.0
52294.0,STARLINK-3777,PAYLOAD,2022-12-17 11:13:17,15.08827298,0.0002198,53.2177,348.3726,39.6227,320.4926,-5.909e-05,-1.228e-05,0.0,0 STARLINK-3777,1 52294U 22041AK  22351.46756792 -.00001228  00000-0 -59090-4 0  9992,2 52294  53.2177 348.3726 0002198  39.6227 320.4926 15.08827298 36635,6917.919,95.438,541.305,538.264,0.0
52294.0,STARLINK-3777,PAYLOAD,2022-12-17 17:34:50,15.08825245,0.0002067,53.2179,347.18300000000005,37.7902,322.3235,-9.1607e-05,-1.745e-05,0.0,0 STARLINK-3777,1 52294U 22041AK  22351.73253147 -.00001745  00000-0 -91607-4 0  9992,2 52294  53.2179 347.1830 0002067  37.7902 322.3235 15.08825245 37897,6917.925,95.438,541.22,538.361,0.0
52294.0,STARLINK-3777,PAYLOAD,2022-12-18 03:07:09,15.088339,0.0002242,53.2189,345.4,33.0089,327.1043,-9.9575e-05,-1.872e-05,0.0,0 STARLINK-3777,1 52294U 22041AK  22352.12996851 -.00001872  00000-0 -99575-4 0  9995,2 52294  53.2189 345.4000 0002242  33.0089 327.1043 15.08833900 37952,6917.899,95.438,541.315,538.2130000000002,0.0
52294.0,STARLINK-3777,PAYLOAD,2022-12-18 09:28:41,15.08836348,0.0002233,53.2186,344.2092,37.7875,322.3274,3.6719e-06,-2.3e-06,0.0,0 STARLINK-3777,1 52294U 22041AK  22352.39492422 -.00000230  00000-0  36719-5 0  9997,2 52294  53.2186 344.2092 0002233  37.7875 322.3274 15.08836348 36772,6917.892,95.438,541.3009999999998,538.212,0.0
52294.0,STARLINK-3777,PAYLOAD,2022-12-19 06:08:42,15.08837897,0.000217,53.2187,340.3437,36.2896,323.8243,0.00010879,1.443e-05,0.0,0 STARLINK-3777,1 52294U 22041AK  22353.25604247  .00001443  00000-0  10879-3 0  9996,2 52294  53.2187 340.3437 0002170  36.2896 323.8243 15.08837897 36907,6917.887,95.438,541.253,538.251,0.0
52294.0,STARLINK-3777,PAYLOAD,2022-12-20 05:59:28,15.08840033,0.0002246,53.2187,335.884,36.2278,323.8866,0.00011212,1.497e-05,0.0,0 STARLINK-3777,1 52294U 22041AK  22354.24964064  .00001497  00000-0  11212-3 0  9993,2 52294  53.2187 335.8840 0002246  36.2278 323.8866 15.08840033 38271,6917.88,95.438,541.299,538.192,0.0
52294.0,STARLINK-3777,PAYLOAD,2022-12-20 07:34:51,15.08844429,0.0002216,53.2185,335.5866,35.1846,324.9292,8.2283e-05,1.022e-05,0.0,0 STARLINK-3777,1 52294U 22041AK  22354.31587937  .00001022  00000-0  82283-4 0  9992,2 52294  53.2185 335.5866 0002216  35.1846 324.9292 15.08844429 37064,6917.8669999999975,95.437,541.265,538.1990000000002,0.0
52294.0,STARLINK-3777,PAYLOAD,2022-12-21 05:50:16,15.08832083,0.0002348,53.2188,331.4213,29.3467,330.7656,-9.5454e-05,-1.807e-05,0.0,0 STARLINK-3777,1 52294U 22041AK  22355.24325101 -.00001807  00000-0 -95454-4 0  9995,2 52294  53.2188 331.4213 0002348  29.3467 330.7656 15.08832083 38421,6917.905,95.438,541.394,538.145,0.0
52294.0,STARLINK-3777,PAYLOAD,2022-12-21 09:01:03,15.08826806,0.0002234,53.2188,330.8296,36.7791,323.3354,-0.00014423,-2.582e-05,0.0,0 STARLINK-3777,1 52294U 22041AK  22355.37573740 -.00002582  00000-0 -14423-3 0  9990,2 52294  53.2188 330.8296 0002234  36.7791 323.3354 15.08826806 37227,6917.920999999999,95.438,541.331,538.24,0.0
52294.0,STARLINK-3777,PAYLOAD,2022-12-22 10:27:13,15.088377599999998,0.0002331,53.2186,326.0723,35.0642,325.0503,-0.00010037,-1.885e-05,0.0,0 STARLINK-3777,1 52294U 22041AK  22356.43557145 -.00001885  00000-0 -10037-3 0  9991,2 52294  53.2186 326.0723 0002331  35.0642 325.0503 15.08837760 38601,6917.887,95.438,541.365,538.14,0.0
52294.0,STARLINK-3777,PAYLOAD,2022-12-22 21:34:55,15.08833641,0.0002229,53.2191,323.9894,38.5863,321.5288,0.00010296,1.35e-05,0.0,0 STARLINK-3777,1 52294U 22041AK  22356.89924909  .00001350  00000-0  10296-3 0  9999,2 52294  53.2191 323.9894 0002229  38.5863 321.5288 15.08833641 37458,6917.9,95.438,541.307,538.2230000000002,0.0
52294.0,STARLINK-3777,PAYLOAD,2022-12-23 07:07:14,15.08833078,0.000198,53.2181,322.2071,39.7452,320.3685,0.00011166,1.489e-05,0.0,0 STARLINK-3777,1 52294U 22041AK  22357.29669001  .00001489  00000-0  11166-3 0  9993,2 52294  53.2181 322.2071 0001980  39.7452 320.3685 15.08833078 37515,6917.901999999999,95.438,541.136,538.3969999999998,0.0
52294.0,STARLINK-3777,PAYLOAD,2022-12-23 21:25:42,15.08838861,0.0002203,53.2192,319.5288,41.4473,318.6686,0.00014465,2.015e-05,0.0,0 STARLINK-3777,1 52294U 22041AK  22357.89284802  .00002015  00000-0  14465-3 0  9992,2 52294  53.2192 319.5288 0002203  41.4473 318.6686 15.08838861 38829,6917.884,95.438,541.273,538.225,0.0
52294.0,STARLINK-3777,PAYLOAD,2022-12-24 03:47:13,15.08849716,0.0002359,53.2177,318.3409,42.9437,317.1739,0.00021328,3.109e-05,0.0,0 STARLINK-3777,1 52294U 22041AK  22358.15779847  .00003109  00000-0  21328-3 0  9991,2 52294  53.2177 318.3409 0002359  42.9437 317.1739 15.08849716 38860,6917.851,95.437,541.3480000000002,538.0840000000002,0.0
52294.0,STARLINK-3777,PAYLOAD,2022-12-24 06:58:00,15.08846917,0.0002105,53.2183,317.7458,38.6145,321.4997,0.00018944,2.729e-05,0.0,0 STARLINK-3777,1 52294U 22041AK  22358.29028034  .00002729  00000-0  18944-3 0  9998,2 52294  53.2183 317.7458 0002105  38.6145 321.4997 15.08846917 37662,6917.859,95.437,541.18,538.268,0.0
52294.0,STARLINK-3777,PAYLOAD,2022-12-24 14:54:56,15.08839056,0.0002182,53.2179,316.2592,36.4433,323.6707,8.7944e-05,1.112e-05,0.0,0 STARLINK-3777,1 52294U 22041AK  22358.62148838  .00001112  00000-0  87944-4 0  9992,2 52294  53.2179 316.2592 0002182  36.4433 323.6707 15.08839056 38931,6917.8830000000025,95.438,541.258,538.239,0.0
52294.0,STARLINK-3777,PAYLOAD,2022-12-24 21:16:29,15.08839899,0.0002122,53.218,315.0701,35.8117,324.3017,4.7653e-05,4.7e-06,0.0,0 STARLINK-3777,1 52294U 22041AK  22358.88644867  .00000470  00000-0  47653-4 0  9992,2 52294  53.2180 315.0701 0002122  35.8117 324.3017 15.08839899 37754,6917.880999999999,95.438,541.214,538.278,0.0
52294.0,STARLINK-3777,PAYLOAD,2022-12-25 03:38:01,15.088424599999998,0.0002519,53.2174,313.8807,32.8242,327.2906,-8.315900000000001e-06,-4.21e-06,0.0,0 STARLINK-3777,1 52294U 22041AK  22359.15140905 -.00000421  00000-0 -83159-5 0  9997,2 52294  53.2174 313.8807 0002519  32.8242 327.2906 15.08842460 37797,6917.873000000001,95.437,541.48,537.995,0.0
52294.0,STARLINK-3777,PAYLOAD,2022-12-25 21:07:16,15.08839746,0.000258,53.2179,310.6103,42.5513,317.5679,-0.00010787,-2.005e-05,0.0,0 STARLINK-3777,1 52294U 22041AK  22359.88005449 -.00002005  00000-0 -10787-3 0  9995,2 52294  53.2179 310.6103 0002580  42.5513 317.5679 15.08839746 37908,6917.880999999999,95.438,541.531,537.961,0.0
52294.0,STARLINK-3777,PAYLOAD,2022-12-26 03:28:49,15.0884044,0.0002401,53.2175,309.4199,44.0001,316.1182,-8.3645e-05,-1.619e-05,0.0,0 STARLINK-3777,1 52294U 22041AK  22360.14501254 -.00001619  00000-0 -83645-4 0  9995,2 52294  53.2175 309.4199 0002401  44.0001 316.1182 15.08840440 39163,6917.879,95.438,541.405,538.0830000000002,0.0
52294.0,STARLINK-3777,PAYLOAD,2022-12-26 19:22:40,15.08834125,0.0002257,53.219,306.4466,41.7579,318.3585,2.2816e-05,7.5e-07,0.0,0 STARLINK-3777,1 52294U 22041AK  22360.80741506  .00000075  00000-0  22816-4 0  9990,2 52294  53.2190 306.4466 0002257  41.7579 318.3585 15.08834125 38047,6917.898,95.438,541.325,538.202,0.0
52294.0,STARLINK-3777,PAYLOAD,2022-12-27 06:30:21,15.0885359,0.0002268,53.2178,304.3645,44.4489,315.6684,-5.3638e-05,-1.142e-05,0.0,0 STARLINK-3777,1 52294U 22041AK  22361.27108310 -.00001142  00000-0 -53638-4 0  9996,2 52294  53.2178 304.3645 0002268  44.4489 315.6684 15.08853590 39331,6917.839,95.437,541.273,538.135,0.0
52294.0,STARLINK-3777,PAYLOAD,2022-12-27 12:51:53,15.08847963,0.0002007,53.218,303.1752,41.2749,318.8395,0.00017707,2.532e-05,0.0,0 STARLINK-3777,1 52294U 22041AK  22361.53603945  .00002532  00000-0  17707-3 0  9997,2 52294  53.2180 303.1752 0002007  41.2749 318.8395 15.08847963 38155,6917.856,95.437,541.109,538.3330000000002,0.0
52294.0,STARLINK-3777,PAYLOAD,2022-12-28 12:42:42,15.08830789,0.0002130999999999,53.218,298.7148,37.0166,323.0972,-1.0962e-05,-4.63e-06,0.0,0 STARLINK-3777,1 52294U 22041AK  22362.52965477 -.00000463  00000-0 -10962-4 0  9998,2 52294  53.2180 298.7148 0002131  37.0166 323.0972 15.08830789 39526,6917.909000000002,95.438,541.248,538.299,0.0
